ORBCOMM-X               
1 21576U 91050C   25091.14426775  .00000691  00000+0  21851-3 0  9994
2 21576  98.3498 159.2931 0004666  69.3906 290.7784 14.43175966771221
ORBCOMM FM01            
1 23545U 95017A   25091.17647740  .00011338  00000+0  12161-2 0  9992
2 23545  69.9632 266.0141 0000357 142.0038 218.1141 14.88804647601396
ORBCOMM FM02            
1 23546U 95017B   25090.88867995  .00014082  00000+0  14875-2 0  9999
2 23546  69.9647 286.3319 0001603  98.9256 261.2079 14.89348034600641
ORBCOMM FM08            
1 25112U 97084A   25091.12913698  .00003106  00000+0  91356-3 0  9991
2 25112  45.0151  17.6937 0005682 230.2990 129.7360 14.45459361430397
ORBCOMM FM10            
1 25113U 97084B   25090.82249868  .00003416  00000+0  10050-2 0  9994
2 25113  45.0161  21.4110 0003352 192.7163 167.3604 14.45246989605327
ORBCOMM FM11            
1 25114U 97084C   25091.15944159  .00003224  00000+0  95577-3 0  9992
2 25114  45.0148  20.2895 0004211 194.5538 165.5193 14.45003512430367
ORBCOMM FM12            
1 25115U 97084D   25090.84654853  .00003024  00000+0  89865-3 0  9998
2 25115  45.0157  21.5481 0003147 192.8999 167.1772 14.45025010430089
ORBCOMM FM09            
1 25116U 97084E   25091.14897579  .00003117  00000+0  92705-3 0  9997
2 25116  45.0161  20.9565 0004378 175.4413 184.6478 14.44914458430366
